start=new Date('2023-01-10T00:00:00.000Z').valueOf();
sats=[{"CLASSIFICATION_TYPE":"U","PERIOD":"95.437","TLE_LINE1":"1 51779U 22017M   23009.29462018  .00002508  00000-0  17561-3 0  9995","DECAY_DATE":null,"LAUNCH_DATE":"2022-02-25","REV_AT_EPOCH":"4814","SITE":"AFWTR","SEMIMAJOR_AXIS":"6917.870","EPHEMERIS_TYPE":"0","EPOCH":"2023-01-09T07:04:15.183552","NORAD_CAT_ID":"51779","ARG_OF_PERICENTER":"29.9574","MEAN_ELEMENT_THEORY":"SGP4","MEAN_MOTION":"15.08843483","MEAN_MOTION_DOT":"0.00002508","ELEMENT_SET_NO":"999","INCLINATION":"53.2153","OBJECT_TYPE":"PAYLOAD","GP_ID":"222545306","BSTAR":"0.00017561000000","OBJECT_ID":"2022-017M","COUNTRY_CODE":"US","RA_OF_ASC_NODE":"125.9037","OBJECT_NAME":"STARLINK-3611","TLE_LINE2":"2 51779  53.2153 125.9037 0002796  29.9574 330.1578 15.08843483 48145","PERIAPSIS":"537.801","RCS_SIZE":"LARGE","CENTER_NAME":"EARTH","MEAN_MOTION_DDOT":"0.0000000000000","FILE":"3737263","ECCENTRICITY":"0.00027960","TIME_SYSTEM":"UTC","MEAN_ANOMALY":"330.1578","APOAPSIS":"541.669","REF_FRAME":"TEME"},{"RA_OF_ASC_NODE":"124.4601","COUNTRY_CODE":"US","OBJECT_NAME":"STARLINK-3617","PERIAPSIS":"538.002","TLE_LINE2":"2 51780  53.2152 124.4601 0002595  31.6457 328.4691 15.08823207 48041","RCS_SIZE":"LARGE","GP_ID":"222545057","BSTAR":"0.00035763000000","OBJECT_ID":"2022-017N","REF_FRAME":"TEME","APOAPSIS":"541.592","MEAN_ANOMALY":"328.4691","MEAN_MOTION_DDOT":"0.0000000000000","CENTER_NAME":"EARTH","FILE":"3737263","ECCENTRICITY":"0.00025950","TIME_SYSTEM":"UTC","DECAY_DATE":null,"REV_AT_EPOCH":"4804","LAUNCH_DATE":"2022-02-25","SEMIMAJOR_AXIS":"6917.932","EPHEMERIS_TYPE":"0","EPOCH":"2023-01-09T14:46:40.020672","SITE":"AFWTR","NORAD_CAT_ID":"51780","CLASSIFICATION_TYPE":"U","PERIOD":"95.439","TLE_LINE1":"1 51780U 22017N   23009.61574098  .00005406  00000-0  35763-3 0  9999","INCLINATION":"53.2152","OBJECT_TYPE":"PAYLOAD","MEAN_ELEMENT_THEORY":"SGP4","ARG_OF_PERICENTER":"31.6457","MEAN_MOTION_DOT":"0.00005406","MEAN_MOTION":"15.08823207","ELEMENT_SET_NO":"999"},{"APOAPSIS":"541.716","REF_FRAME":"TEME","MEAN_ANOMALY":"317.6109","FILE":"3737422","MEAN_MOTION_DDOT":"0.0000000000000","CENTER_NAME":"EARTH","ECCENTRICITY":"0.00028720","TIME_SYSTEM":"UTC","TLE_LINE2":"2 51781  53.2151 124.1296 0002872  42.5105 317.6109 15.08845417 49702","RCS_SIZE":"LARGE","PERIAPSIS":"537.742","OBJECT_NAME":"STARLINK-3580","COUNTRY_CODE":"US","RA_OF_ASC_NODE":"124.1296","BSTAR":"0.00020891000000","GP_ID":"222577850","OBJECT_ID":"2022-017P","INCLINATION":"53.2151","OBJECT_TYPE":"PAYLOAD","MEAN_ELEMENT_THEORY":"SGP4","ARG_OF_PERICENTER":"42.5105","ELEMENT_SET_NO":"999","MEAN_MOTION":"15.08845417","MEAN_MOTION_DOT":"0.00003038","SEMIMAJOR_AXIS":"6917.864","EPOCH":"2023-01-09T16:31:16.292064","EPHEMERIS_TYPE":"0","SITE":"AFWTR","DECAY_DATE":null,"REV_AT_EPOCH":"4970","LAUNCH_DATE":"2022-02-25","NORAD_CAT_ID":"51781","PERIOD":"95.437","CLASSIFICATION_TYPE":"U","TLE_LINE1":"1 51781U 22017P   23009.68838301  .00003038  00000-0  20891-3 0  9992"},{"MEAN_MOTION_DOT":"0.00001665","MEAN_MOTION":"15.08841488","ELEMENT_SET_NO":"999","MEAN_ELEMENT_THEORY":"SGP4","ARG_OF_PERICENTER":"39.0295","OBJECT_TYPE":"PAYLOAD","INCLINATION":"53.2168","TLE_LINE1":"1 51782U 22017Q   23009.37465748  .00001665  00000-0  12272-3 0  9998","CLASSIFICATION_TYPE":"U","PERIOD":"95.437","NORAD_CAT_ID":"51782","REV_AT_EPOCH":"4777","DECAY_DATE":null,"LAUNCH_DATE":"2022-02-25","EPOCH":"2023-01-09T08:59:30.406272","SEMIMAJOR_AXIS":"6917.876","EPHEMERIS_TYPE":"0","SITE":"AFWTR","ECCENTRICITY":"0.00031250","TIME_SYSTEM":"UTC","MEAN_MOTION_DDOT":"0.0000000000000","CENTER_NAME":"EARTH","FILE":"3737263","REF_FRAME":"TEME","APOAPSIS":"541.903","MEAN_ANOMALY":"321.0923","OBJECT_ID":"2022-017Q","GP_ID":"222544556","BSTAR":"0.00012272000000","RA_OF_ASC_NODE":"135.5221","COUNTRY_CODE":"US","OBJECT_NAME":"STARLINK-3616","TLE_LINE2":"2 51782  53.2168 135.5221 0003125  39.0295 321.0923 15.08841488 47770","PERIAPSIS":"537.579","RCS_SIZE":"LARGE"},{"OBJECT_ID":"2022-017R","GP_ID":"222544807","BSTAR":"0.00015683000000","COUNTRY_CODE":"US","RA_OF_ASC_NODE":"124.4437","OBJECT_NAME":"STARLINK-3628","PERIAPSIS":"537.889","TLE_LINE2":"2 51783  53.2167 124.4437 0002656  34.9742 325.1424 15.08846296 48049","RCS_SIZE":"LARGE","ECCENTRICITY":"0.00026560","TIME_SYSTEM":"UTC","MEAN_MOTION_DDOT":"0.0000000000000","CENTER_NAME":"EARTH","FILE":"3737263","APOAPSIS":"541.564","REF_FRAME":"TEME","MEAN_ANOMALY":"325.1424","TLE_LINE1":"1 51783U 22017R   23009.61845809  .00002209  00000-0  15683-3 0  9990","CLASSIFICATION_TYPE":"U","PERIOD":"95.437","NORAD_CAT_ID":"51783","DECAY_DATE":null,"REV_AT_EPOCH":"4804","LAUNCH_DATE":"2022-02-25","SEMIMAJOR_AXIS":"6917.861","EPOCH":"2023-01-09T14:50:34.778976","EPHEMERIS_TYPE":"0","SITE":"AFWTR","MEAN_MOTION_DOT":"0.00002209","MEAN_MOTION":"15.08846296","ELEMENT_SET_NO":"999","MEAN_ELEMENT_THEORY":"SGP4","ARG_OF_PERICENTER":"34.9742","OBJECT_TYPE":"PAYLOAD","INCLINATION":"53.2167"},{"TLE_LINE2":"2 51784  53.2164 137.0361 0002065  44.4696 315.6461 15.08850605 49462","RCS_SIZE":"LARGE","PERIAPSIS":"538.284","OBJECT_NAME":"STARLINK-3632","COUNTRY_CODE":"US","RA_OF_ASC_NODE":"137.0361","BSTAR":"0.00037950000000","GP_ID":"222582217","OBJECT_ID":"2022-017S","APOAPSIS":"541.142","REF_FRAME":"TEME","MEAN_ANOMALY":"315.6461","FILE":"3737644","MEAN_MOTION_DDOT":"0.0000000000000","CENTER_NAME":"EARTH","ECCENTRICITY":"0.00020650","TIME_SYSTEM":"UTC","EPHEMERIS_TYPE":"0","SEMIMAJOR_AXIS":"6917.848","EPOCH":"2023-01-09T00:57:18.332928","SITE":"AFWTR","LAUNCH_DATE":"2022-02-25","DECAY_DATE":null,"REV_AT_EPOCH":"4946","NORAD_CAT_ID":"51784","PERIOD":"95.437","CLASSIFICATION_TYPE":"U","TLE_LINE1":"1 51784U 22017S   23009.03979552  .00005759  00000-0  37950-3 0  9994","INCLINATION":"53.2164","OBJECT_TYPE":"PAYLOAD","MEAN_ELEMENT_THEORY":"SGP4","ARG_OF_PERICENTER":"44.4696","ELEMENT_SET_NO":"999","MEAN_MOTION":"15.08850605","MEAN_MOTION_DOT":"0.00005759"},{"TIME_SYSTEM":"UTC","ECCENTRICITY":"0.00028050","FILE":"3737423","CENTER_NAME":"EARTH","MEAN_MOTION_DDOT":"0.0000000000000","MEAN_ANOMALY":"329.5019","APOAPSIS":"541.690","REF_FRAME":"TEME","OBJECT_ID":"2022-017T","BSTAR":"0.00007125200000","GP_ID":"222577861","TLE_LINE2":"2 51785  53.2155 123.8726 0002805  30.6137 329.5019 15.08838658 49759","PERIAPSIS":"537.809","RCS_SIZE":"LARGE","COUNTRY_CODE":"US","OBJECT_NAME":"STARLINK-3646","RA_OF_ASC_NODE":"123.8726","ELEMENT_SET_NO":"999","MEAN_MOTION":"15.08838658","MEAN_MOTION_DOT":"0.00000846","ARG_OF_PERICENTER":"30.6137","MEAN_ELEMENT_THEORY":"SGP4","OBJECT_TYPE":"PAYLOAD","INCLINATION":"53.2155","TLE_LINE1":"1 51785U 22017T   23009.74726025  .00000846  00000-0  71252-4 0  9994","PERIOD":"95.438","CLASSIFICATION_TYPE":"U","NORAD_CAT_ID":"51785","SITE":"AFWTR","EPHEMERIS_TYPE":"0","SEMIMAJOR_AXIS":"6917.884","EPOCH":"2023-01-09T17:56:03.285600","LAUNCH_DATE":"2022-02-25","DECAY_DATE":null,"REV_AT_EPOCH":"4975"},{"EPHEMERIS_TYPE":"0","SEMIMAJOR_AXIS":"6917.898","EPOCH":"2023-01-09T16:40:32.384064","SITE":"AFWTR","DECAY_DATE":null,"REV_AT_EPOCH":"4960","LAUNCH_DATE":"2022-02-25","NORAD_CAT_ID":"51786","PERIOD":"95.438","CLASSIFICATION_TYPE":"U","TLE_LINE1":"1 51786U 22017U   23009.69481926  .00001950  00000-0  14059-3 0  9995","INCLINATION":"53.2176","OBJECT_TYPE":"PAYLOAD","MEAN_ELEMENT_THEORY":"SGP4","ARG_OF_PERICENTER":"36.9876","ELEMENT_SET_NO":"999","MEAN_MOTION_DOT":"0.00001950","MEAN_MOTION":"15.08834109","TLE_LINE2":"2 51786  53.2176 134.0890 0002153  36.9876 323.1265 15.08834109 49608","RCS_SIZE":"MEDIUM","PERIAPSIS":"538.274","OBJECT_NAME":"STARLINK-3638","COUNTRY_CODE":"US","RA_OF_ASC_NODE":"134.0890","BSTAR":"0.00014059000000","GP_ID":"222577553","OBJECT_ID":"2022-017U","REF_FRAME":"TEME","APOAPSIS":"541.253","MEAN_ANOMALY":"323.1265","FILE":"3737423","MEAN_MOTION_DDOT":"0.0000000000000","CENTER_NAME":"EARTH","ECCENTRICITY":"0.00021530","TIME_SYSTEM":"UTC"},{"APOAPSIS":"541.846","REF_FRAME":"TEME","MEAN_ANOMALY":"325.4583","MEAN_MOTION_DDOT":"0.0000000000000","CENTER_NAME":"EARTH","FILE":"3737263","TIME_SYSTEM":"UTC","ECCENTRICITY":"0.00030360","COUNTRY_CODE":"US","RA_OF_ASC_NODE":"135.2228","OBJECT_NAME":"STARLINK-3619","TLE_LINE2":"2 51787  53.2170 135.2228 0003036  34.6607 325.4583 15.08839770 47873","RCS_SIZE":"LARGE","PERIAPSIS":"537.646","GP_ID":"222545307","BSTAR":"0.00012672000000","OBJECT_ID":"2022-017V","INCLINATION":"53.2170","OBJECT_TYPE":"PAYLOAD","MEAN_ELEMENT_THEORY":"SGP4","ARG_OF_PERICENTER":"34.6607","MEAN_MOTION":"15.08839770","MEAN_MOTION_DOT":"0.00001729","ELEMENT_SET_NO":"999","LAUNCH_DATE":"2022-02-25","DECAY_DATE":null,"REV_AT_EPOCH":"4787","EPOCH":"2023-01-09T10:40:11.824320","SEMIMAJOR_AXIS":"6917.881","EPHEMERIS_TYPE":"0","SITE":"AFWTR","NORAD_CAT_ID":"51787","CLASSIFICATION_TYPE":"U","PERIOD":"95.438","TLE_LINE1":"1 51787U 22017V   23009.44458130  .00001729  00000-0  12672-3 0  9993"},{"MEAN_ELEMENT_THEORY":"SGP4","ARG_OF_PERICENTER":"61.8336","ELEMENT_SET_NO":"999","MEAN_MOTION":"15.08838844","MEAN_MOTION_DOT":"0.00001884","INCLINATION":"53.2150","OBJECT_TYPE":"PAYLOAD","PERIOD":"95.438","CLASSIFICATION_TYPE":"U","TLE_LINE1":"1 51788U 22017W   23009.61755696  .00001884  00000-0  13647-3 0  9995","EPHEMERIS_TYPE":"0","SEMIMAJOR_AXIS":"6917.884","EPOCH":"2023-01-09T14:49:16.921344","SITE":"AFWTR","LAUNCH_DATE":"2022-02-25","DECAY_DATE":null,"REV_AT_EPOCH":"4954","NORAD_CAT_ID":"51788","FILE":"3737424","MEAN_MOTION_DDOT":"0.0000000000000","CENTER_NAME":"EARTH","TIME_SYSTEM":"UTC","ECCENTRICITY":"0.00026050","REF_FRAME":"TEME","APOAPSIS":"541.551","MEAN_ANOMALY":"298.2919","BSTAR":"0.00013647000000","GP_ID":"222577877","OBJECT_ID":"2022-017W","PERIAPSIS":"537.947","TLE_LINE2":"2 51788  53.2150 134.4520 0002605  61.8336 298.2919 15.08838844 49547","RCS_SIZE":"LARGE","OBJECT_NAME":"STARLINK-3641","COUNTRY_CODE":"US","RA_OF_ASC_NODE":"134.4520"}];
